[{"OBJECT_NAME":"STARLINK-36912","OBJECT_ID":"2026-038A","EPOCH":"2026-03-04T20:00:03.000384","MEAN_MOTION":16.02531401,"ECCENTRICITY":0.0001229,"INCLINATION":97.2771,"RA_OF_ASC_NODE":73.7206,"ARG_OF_PERICENTER":73.1014,"MEAN_ANOMALY":168.6216,"EPHEMERIS_TYPE":0,"CLASSIFICATION_TYPE":"U","NORAD_CAT_ID":67961,"ELEMENT_SET_NO":999,"REV_AT_EPOCH":241,"BSTAR":-0.0024182,"MEAN_MOTION_DOT":-0.01407892,"MEAN_MOTION_DDOT":0.00063545},{"OBJECT_NAME":"STARLINK-36881","OBJECT_ID":"2026-038B","EPOCH":"2026-03-04T20:00:03.000384","MEAN_MOTION":16.02606997,"ECCENTRICITY":0.0001229,"INCLINATION":97.2769,"RA_OF_ASC_NODE":73.7212,"ARG_OF_PERICENTER":73.3407,"MEAN_ANOMALY":169.9923,"EPHEMERIS_TYPE":0,"CLASSIFICATION_TYPE":"U","NORAD_CAT_ID":67962,"ELEMENT_SET_NO":999,"REV_AT_EPOCH":241,"BSTAR":-0.0023999,"MEAN_MOTION_DOT":-0.01403508,"MEAN_MOTION_DDOT":0.00063234},{"OBJECT_NAME":"STARLINK-36357","OBJECT_ID":"2026-038C","EPOCH":"2026-03-04T20:00:03.000384","MEAN_MOTION":16.02822238,"ECCENTRICITY":0.0001103,"INCLINATION":97.2766,"RA_OF_ASC_NODE":73.7231,"ARG_OF_PERICENTER":78.9856,"MEAN_ANOMALY":168.5559,"EPHEMERIS_TYPE":0,"CLASSIFICATION_TYPE":"U","NORAD_CAT_ID":67963,"ELEMENT_SET_NO":999,"REV_AT_EPOCH":241,"BSTAR":-0.0023352,"MEAN_MOTION_DOT":-0.01383149,"MEAN_MOTION_DDOT":0.00061699},{"OBJECT_NAME":"STARLINK-36349","OBJECT_ID":"2026-038D","EPOCH":"2026-03-04T20:00:03.000384","MEAN_MOTION":16.02723423,"ECCENTRICITY":0.0001136,"INCLINATION":97.2765,"RA_OF_ASC_NODE":73.7219,"ARG_OF_PERICENTER":89.3588,"MEAN_ANOMALY":156.067,"EPHEMERIS_TYPE":0,"CLASSIFICATION_TYPE":"U","NORAD_CAT_ID":67964,"ELEMENT_SET_NO":999,"REV_AT_EPOCH":241,"BSTAR":-0.002376,"MEAN_MOTION_DOT":-0.01399021,"MEAN_MOTION_DDOT":0.00062945},{"OBJECT_NAME":"STARLINK-36806","OBJECT_ID":"2026-038E","EPOCH":"2026-03-04T20:00:03.000384","MEAN_MOTION":16.02958386,"ECCENTRICITY":0.000121,"INCLINATION":97.2762,"RA_OF_ASC_NODE":73.7241,"ARG_OF_PERICENTER":74.9214,"MEAN_ANOMALY":175.0488,"EPHEMERIS_TYPE":0,"CLASSIFICATION_TYPE":"U","NORAD_CAT_ID":67965,"ELEMENT_SET_NO":999,"REV_AT_EPOCH":241,"BSTAR":-0.0023395,"MEAN_MOTION_DOT":-0.01396701,"MEAN_MOTION_DDOT":0.00062925},{"OBJECT_NAME":"STARLINK-36820","OBJECT_ID":"2026-038F","EPOCH":"2026-03-04T20:00:03.000384","MEAN_MOTION":16.03073252,"ECCENTRICITY":0.0001214,"INCLINATION":97.2763,"RA_OF_ASC_NODE":73.725,"ARG_OF_PERICENTER":79.4419,"MEAN_ANOMALY":172.556,"EPHEMERIS_TYPE":0,"CLASSIFICATION_TYPE":"U","NORAD_CAT_ID":67966,"ELEMENT_SET_NO":999,"REV_AT_EPOCH":241,"BSTAR":-0.0023062,"MEAN_MOTION_DOT":-0.01386258,"MEAN_MOTION_DDOT":0.00062139},{"OBJECT_NAME":"STARLINK-36819","OBJECT_ID":"2026-038G","EPOCH":"2026-03-04T20:00:03.000384","MEAN_MOTION":16.03191578,"ECCENTRICITY":0.0001246,"INCLINATION":97.2762,"RA_OF_ASC_NODE":73.7259,"ARG_OF_PERICENTER":69.7035,"MEAN_ANOMALY":184.4875,"EPHEMERIS_TYPE":0,"CLASSIFICATION_TYPE":"U","NORAD_CAT_ID":67967,"ELEMENT_SET_NO":999,"REV_AT_EPOCH":241,"BSTAR":-0.0022906,"MEAN_MOTION_DOT":-0.013865,"MEAN_MOTION_DDOT":0.00062245},{"OBJECT_NAME":"STARLINK-36812","OBJECT_ID":"2026-038H","EPOCH":"2026-03-04T20:00:03.000384","MEAN_MOTION":16.03296325,"ECCENTRICITY":0.0001361,"INCLINATION":97.2758,"RA_OF_ASC_NODE":73.7264,"ARG_OF_PERICENTER":75.059,"MEAN_ANOMALY":181.0333,"EPHEMERIS_TYPE":0,"CLASSIFICATION_TYPE":"U","NORAD_CAT_ID":67968,"ELEMENT_SET_NO":999,"REV_AT_EPOCH":241,"BSTAR":-0.0022917,"MEAN_MOTION_DOT":-0.01395678,"MEAN_MOTION_DDOT":0.00063089},{"OBJECT_NAME":"STARLINK-36709","OBJECT_ID":"2026-038J","EPOCH":"2026-03-04T20:00:03.000384","MEAN_MOTION":16.03510313,"ECCENTRICITY":0.0001037,"INCLINATION":97.2759,"RA_OF_ASC_NODE":73.7285,"ARG_OF_PERICENTER":78.6267,"MEAN_ANOMALY":181.9667,"EPHEMERIS_TYPE":0,"CLASSIFICATION_TYPE":"U","NORAD_CAT_ID":67969,"ELEMENT_SET_NO":999,"REV_AT_EPOCH":241,"BSTAR":-0.0022014,"MEAN_MOTION_DOT":-0.01358073,"MEAN_MOTION_DDOT":0.00060126},{"OBJECT_NAME":"STARLINK-36319","OBJECT_ID":"2026-038K","EPOCH":"2026-03-04T20:00:03.000384","MEAN_MOTION":16.03413346,"ECCENTRICITY":0.0001178,"INCLINATION":97.2758,"RA_OF_ASC_NODE":73.7273,"ARG_OF_PERICENTER":74.9721,"MEAN_ANOMALY":183.3417,"EPHEMERIS_TYPE":0,"CLASSIFICATION_TYPE":"U","NORAD_CAT_ID":67970,"ELEMENT_SET_NO":999,"REV_AT_EPOCH":238,"BSTAR":-0.0022589,"MEAN_MOTION_DOT":-0.01385299,"MEAN_MOTION_DDOT":0.00062308},{"OBJECT_NAME":"STARLINK-36710","OBJECT_ID":"2026-038L","EPOCH":"2026-03-04T20:00:03.000384","MEAN_MOTION":16.03699339,"ECCENTRICITY":0.0001117,"INCLINATION":97.2757,"RA_OF_ASC_NODE":73.7297,"ARG_OF_PERICENTER":69.5978,"MEAN_ANOMALY":193.6847,"EPHEMERIS_TYPE":0,"CLASSIFICATION_TYPE":"U","NORAD_CAT_ID":67971,"ELEMENT_SET_NO":999,"REV_AT_EPOCH":241,"BSTAR":-0.002245,"MEAN_MOTION_DOT":-0.01400067,"MEAN_MOTION_DDOT":0.00063761},{"OBJECT_NAME":"STARLINK-36894","OBJECT_ID":"2026-038M","EPOCH":"2026-03-04T20:00:03.000384","MEAN_MOTION":16.03827111,"ECCENTRICITY":0.0001208,"INCLINATION":97.2754,"RA_OF_ASC_NODE":73.7306,"ARG_OF_PERICENTER":65.5974,"MEAN_ANOMALY":199.9348,"EPHEMERIS_TYPE":0,"CLASSIFICATION_TYPE":"U","NORAD_CAT_ID":67972,"ELEMENT_SET_NO":999,"REV_AT_EPOCH":241,"BSTAR":-0.0022344,"MEAN_MOTION_DOT":-0.01404007,"MEAN_MOTION_DDOT":0.00064192},{"OBJECT_NAME":"STARLINK-36900","OBJECT_ID":"2026-038N","EPOCH":"2026-03-04T20:00:03.000384","MEAN_MOTION":16.04079091,"ECCENTRICITY":0.0001224,"INCLINATION":97.2753,"RA_OF_ASC_NODE":73.7324,"ARG_OF_PERICENTER":68.5758,"MEAN_ANOMALY":201.4401,"EPHEMERIS_TYPE":0,"CLASSIFICATION_TYPE":"U","NORAD_CAT_ID":67973,"ELEMENT_SET_NO":999,"REV_AT_EPOCH":241,"BSTAR":-0.0022008,"MEAN_MOTION_DOT":-0.01403799,"MEAN_MOTION_DDOT":0.00064367},{"OBJECT_NAME":"STARLINK-36901","OBJECT_ID":"2026-038P","EPOCH":"2026-03-04T20:00:03.000384","MEAN_MOTION":16.03948368,"ECCENTRICITY":0.0001226,"INCLINATION":97.2752,"RA_OF_ASC_NODE":73.7312,"ARG_OF_PERICENTER":65.5269,"MEAN_ANOMALY":202.1396,"EPHEMERIS_TYPE":0,"CLASSIFICATION_TYPE":"U","NORAD_CAT_ID":67974,"ELEMENT_SET_NO":999,"REV_AT_EPOCH":241,"BSTAR":-0.0022263,"MEAN_MOTION_DOT":-0.01408998,"MEAN_MOTION_DDOT":0.00064709},{"OBJECT_NAME":"STARLINK-36883","OBJECT_ID":"2026-038Q","EPOCH":"2026-03-04T20:00:03.000384","MEAN_MOTION":16.04576143,"ECCENTRICITY":0.000114,"INCLINATION":97.2747,"RA_OF_ASC_NODE":73.7363,"ARG_OF_PERICENTER":68.5962,"MEAN_ANOMALY":210.4931,"EPHEMERIS_TYPE":0,"CLASSIFICATION_TYPE":"U","NORAD_CAT_ID":67975,"ELEMENT_SET_NO":999,"REV_AT_EPOCH":241,"BSTAR":-0.0020868,"MEAN_MOTION_DOT":-0.01371548,"MEAN_MOTION_DDOT":0.00062019},{"OBJECT_NAME":"STARLINK-36880","OBJECT_ID":"2026-038R","EPOCH":"2026-03-04T20:00:03.000384","MEAN_MOTION":16.04196475,"ECCENTRICITY":0.0001135,"INCLINATION":97.2751,"RA_OF_ASC_NODE":73.7333,"ARG_OF_PERICENTER":67.4009,"MEAN_ANOMALY":204.903,"EPHEMERIS_TYPE":0,"CLASSIFICATION_TYPE":"U","NORAD_CAT_ID":67976,"ELEMENT_SET_NO":999,"REV_AT_EPOCH":241,"BSTAR":-0.0021529,"MEAN_MOTION_DOT":-0.01383122,"MEAN_MOTION_DDOT":0.00062707}]
