STARLINK-36912          
1 67961U 26038A   26063.83336806 -.01407892  63545-3 -24182-2 0  9990
2 67961  97.2771  73.7206 0001229  73.1014 168.6216 16.02531401  2419
STARLINK-36881          
1 67962U 26038B   26063.83336806 -.01403508  63234-3 -23999-2 0  9991
2 67962  97.2769  73.7212 0001229  73.3407 169.9923 16.02606997  2414
STARLINK-36357          
1 67963U 26038C   26063.83336806 -.01383149  61699-3 -23352-2 0  9996
2 67963  97.2766  73.7231 0001103  78.9856 168.5559 16.02822238  2411
STARLINK-36349          
1 67964U 26038D   26063.83336806 -.01399021  62945-3 -23760-2 0  9991
2 67964  97.2765  73.7219 0001136  89.3588 156.0670 16.02723423  2413
STARLINK-36806          
1 67965U 26038E   26063.83336806 -.01396701  62925-3 -23395-2 0  9996
2 67965  97.2762  73.7241 0001210  74.9214 175.0488 16.02958386  2411
STARLINK-36820          
1 67966U 26038F   26063.83336806 -.01386258  62139-3 -23062-2 0  9991
2 67966  97.2763  73.7250 0001214  79.4419 172.5560 16.03073252  2418
STARLINK-36819          
1 67967U 26038G   26063.83336806 -.01386500  62245-3 -22906-2 0  9996
2 67967  97.2762  73.7259 0001246  69.7035 184.4875 16.03191578  2411
STARLINK-36812          
1 67968U 26038H   26063.83336806 -.01395678  63089-3 -22917-2 0  9992
2 67968  97.2758  73.7264 0001361  75.0590 181.0333 16.03296325  2415
STARLINK-36709          
1 67969U 26038J   26063.83336806 -.01358073  60126-3 -22014-2 0  9998
2 67969  97.2759  73.7285 0001037  78.6267 181.9667 16.03510313  2415
STARLINK-36319          
1 67970U 26038K   26063.83336806 -.01385299  62308-3 -22589-2 0  9991
2 67970  97.2758  73.7273 0001178  74.9721 183.3417 16.03413346  2386
STARLINK-36710          
1 67971U 26038L   26063.83336806 -.01400067  63761-3 -22450-2 0  9994
2 67971  97.2757  73.7297 0001117  69.5978 193.6847 16.03699339  2412
STARLINK-36894          
1 67972U 26038M   26063.83336806 -.01404007  64192-3 -22344-2 0  9994
2 67972  97.2754  73.7306 0001208  65.5974 199.9348 16.03827111  2410
STARLINK-36900          
1 67973U 26038N   26063.83336806 -.01403799  64367-3 -22008-2 0  9993
2 67973  97.2753  73.7324 0001224  68.5758 201.4401 16.04079091  2417
STARLINK-36901          
1 67974U 26038P   26063.83336806 -.01408998  64709-3 -22263-2 0  9993
2 67974  97.2752  73.7312 0001226  65.5269 202.1396 16.03948368  2412
STARLINK-36883          
1 67975U 26038Q   26063.83336806 -.01371548  62019-3 -20868-2 0  9995
2 67975  97.2747  73.7363 0001140  68.5962 210.4931 16.04576143  2417
STARLINK-36880          
1 67976U 26038R   26063.83336806 -.01383122  62707-3 -21529-2 0  9996
2 67976  97.2751  73.7333 0001135  67.4009 204.9030 16.04196475  2418
